id,category,satellite_name,tle_line1,tle_line2,inclination,eccentricity,period,perigee,apogee,epoch,raan,arg_perigee,mean_anomaly,mean_motion,semi_major_axis,velocity,orbit_type,satellite_age,bstar,rev_num,norad_number,ephemeris_type,intl_designator
6615,active,KONDOR-FKA NO. 1,1 56756U 23074A   25017.59869239  .00008986  00000+0  42364-3 0  9993,2 56756  97.4375 214.5952 0001890  89.2937 270.8514 15.19715022 91381,97.43750000000001,0.000189,94.75460722266915,505.53694455789173,508.13941338954373,2025-01-17 14:22:07.022496,214.5952,89.2937,15.19715022,15.19715022,6884.838178973718,7.608902503773191,LEO,2,0.00042364000000000003,9138,56756,0,23074A
6617,active,IRNSS-1J (NVS-01),1 56759U 23076A   25017.06204010 -.00000332  00000+0  00000+0 0  9995,2 56759   3.4487 261.1428 0008035  15.9387 351.5080  1.00273304  5943,3.4487,0.0008035,1436.0751491743006,35752.42711574495,35820.18515570505,2025-01-17 01:29:20.26464,261.1428,15.9387,1.00273304,1.00273304,42164.306135725,3.074655122235235,GEO,2,0,594,56759,0,23076A
6618,active,STARLINK-6197,1 56767U 23078A   25017.29320590  .00000174  00000+0  22396-4 0  9993,2 56767  70.0008 334.3918 0002676 264.6495  95.4359 14.98326844 89816,70.0008,0.0002676,96.10720156062291,570.3427764018988,574.0625248605156,2025-01-17 07:02:12.98976,334.3918,264.6495,14.98326844,14.98326844,6950.202650631208,7.573038313336085,LEO,2,2.2396e-05,8981,56767,0,23078A
3794,active,STARLINK-3623,1 51772U 22017E   25017.48232198 -.00000459  00000+0 -10723-4 0  9992,2 51772  53.2184  47.5457 0001683 100.6059 259.5123 15.08837187159761,53.21840000000001,0.0001683,95.43773260673221,538.7247064765588,541.0532679096468,2025-01-17 11:34:32.619072,47.5457,100.6059,259.5123,15.08837187,6917.888987193103,7.590704650004975,LEO,2,-1.0723e-05,15976,51772,0,22017E
2940,active,STARLINK-2655,1 48449U 21040X   25016.92704475  .00002657  00000+0  19719-3 0  9997,2 48449  53.0537 252.5379 0001881  89.3768 270.7436 15.06408306205094,53.0537,0.0001881,95.59161312802799,546.0204480861621,548.6257546368943,2025-01-16 22:14:56.6664,252.5379,89.3768,270.7436,15.06408306,6925.323101361529,7.586629365986342,LEO,3,0.00019719,20509,48449,0,21040X
6626,active,STARLINK-6292,1 56775U 23078J   25017.11310154 -.00001557  00000+0 -12269-3 0  9993,2 56775  69.9996 274.9373 0002502 266.8404  93.2469 14.98336480 91261,69.9996,0.0002502,96.10658348250321,570.4339189035654,573.9117853987809,2025-01-17 02:42:51.973056,274.9373,266.8404,14.9833648,14.9833648,6950.172852151173,7.573054547809234,LEO,2,-0.00012269,9126,56775,0,23078J
3974,active,STARLINK-3534,1 52120U 22029AJ  25017.60927398  .00002213  00000+0  15714-3 0  9992,2 52120  53.2178 146.9777 0001557  93.9176 266.1994 15.08827639157988,53.217800000000004,0.0001557,95.43833654547734,538.8410519945955,540.9952917133114,2025-01-17 14:37:21.271872,146.9777,93.9176,266.1994,15.08827639,6917.918171853953,7.590688638513586,LEO,2,0.00015714,15798,52120,0,22029AJ
6634,active,STARLINK-6357,1 56783U 23078S   25017.18843265  .00002224  00000+0  19415-3 0  9993,2 56783  70.0004 294.6822 0002506 268.8469  91.2403 14.98324130 90789,70.0004,0.0002506,96.10737564508156,570.4693206069624,573.9527663819608,2025-01-17 04:31:20.58096,294.6822,268.8469,14.9832413,14.9832413,6950.211043494462,7.5730337408494535,LEO,2,0.00019415,9078,56783,0,23078S
6635,active,STARLINK-6354,1 56784U 23078T   25017.19260539  .00000567  00000+0  55280-4 0  9991,2 56784  69.9999 294.6970 0002802 268.2834  91.8004 14.98326901 90784,69.9999,0.0002802,96.10719790447118,570.2550276294805,574.1499210961119,2025-01-17 04:37:21.105696,294.697,268.2834,14.98326901,14.98326901,6950.202474362796,7.573038409368354,LEO,2,5.528e-05,9078,56784,0,23078T
6637,active,STARLINK-6341,1 56786U 23078V   25017.18425631  .00002251  00000+0  19643-3 0  9992,2 56786  70.0000 294.6674 0003088 267.1386  92.9419 14.98322922 90781,70,0.0003088,96.10745313018711,570.0685528379099,574.3610054855208,2025-01-17 04:25:19.745184,294.6674,267.1386,14.98322922,14.98322922,6950.214779161715,7.573031705636236,LEO,2,0.00019643,9078,56786,0,23078V
6638,active,STARLINK-6326,1 56787U 23078W   25017.15919670  .00000606  00000+0  58600-4 0  9990,2 56787  69.9992 294.5811 0002290 263.5136  96.5763 14.98336078 90787,69.9992,0.000229,96.10660926767059,570.5825054265069,573.7656851621514,2025-01-17 03:49:14.59488,294.5811,263.5136,14.98336078,14.98336078,6950.174095294329,7.573053870531858,LEO,2,5.86e-05,9078,56787,0,23078W
6642,active,STARLINK-5977,1 56791U 23078AA  25017.51410610 -.00000240  00000+0 -12312-4 0  9991,2 56791  70.0011 313.6845 0002469 271.1281  88.9595 14.98330185 90344,70.0011,0.0002469,96.10698725928691,570.4763163637117,573.9083213307595,2025-01-17 12:20:18.76704,313.6845,271.1281,14.98330185,14.98330185,6950.192318847236,7.573043942170742,LEO,2,-1.2312e-05,9034,56791,0,23078AA
6643,active,STARLINK-6046,1 56792U 23078AB  25017.55584668  .00000227  00000+0  26804-4 0  9995,2 56792  70.0015 313.8291 0002635 266.8950  93.1908 14.98327509 90347,70.0015,0.0002635,96.10715890553674,570.3692163105425,574.0319720236675,2025-01-17 13:20:25.153152,313.8291,266.895,14.98327509,14.98327509,6950.200594167105,7.573039433712402,LEO,2,2.6804000000000003e-05,9034,56792,0,23078AB
6625,active,STARLINK-6190,1 56774U 23078H   25017.29475149 -.00000809  00000+0 -61295-4 0  9990,2 56774  70.0014 334.3954 0002530 268.0919  91.9950 14.97531539 89815,70.00140000000002,0.000253,96.15824191332774,572.9041389817676,576.4221865421259,2025-01-17 07:04:26.528736,334.3954,268.0919,14.97531539,14.97531539,6952.663162761946,7.5716981648870725,LEO,2,-6.1295e-05,8981,56774,0,23078H
6647,active,STARLINK-6049,1 56796U 23078AF  25017.54749651  .00000750  00000+0  70641-4 0  9992,2 56796  70.0007 313.7990 0002712 272.2764  87.8085 14.98331036 90343,70.0007,0.0002712,96.10693267385538,570.3047957585522,574.0745786448906,2025-01-17 13:08:23.698464,313.799,272.2764,14.98331036,14.98331036,6950.189687201721,7.573045375913281,LEO,2,7.0641e-05,9034,56796,0,23078AF
6630,active,STARLINK-6231,1 56779U 23078N   25017.50970680 -.00000174  00000+0 -68129-5 0  9998,2 56779  70.0009 293.7974 0002407 275.2670  84.8214 14.98328296 90823,70.0009,0.0002407,96.10710842505506,570.5252477316317,573.8710731260617,2025-01-17 12:13:58.66752,293.7974,275.267,14.98328296,14.98328296,6950.198160428847,7.573040759631013,LEO,2,-6.8129000000000004e-06,9082,56779,0,23078N
6650,active,STARLINK-5953,1 56799U 23078AJ  25017.58334491  .00033660  00000+0  28171-2 0  9996,2 56799  70.0023 313.6291 0003106 269.6545 351.2763 14.98304898 90619,70.0023,0.0003106,96.1086092638536,570.111763869646,574.42927191536,2025-01-17 14:00:01.000224,313.6291,269.6545,14.98304898,14.98304898,6950.270517892503,7.573001339046856,LEO,2,0.0028171000000000003,9061,56799,0,23078AJ
6651,active,STARLINK-6036,1 56800U 23078AK  25017.13859710  .00000028  00000+0  10104-4 0  9997,2 56800  69.9998 314.7787 0003105 266.2875  93.7929 14.98328068 90280,69.9998,0.0003105,96.10712304963641,570.0408287537266,574.3569022492038,2025-01-17 03:19:34.78944,314.7787,266.2875,14.98328068,14.98328068,6950.198865501465,7.573040375502162,LEO,2,1.0104e-05,9028,56800,0,23078AK
6652,active,STARLINK-6087,1 56801U 23078AL  25017.15503900 -.00000393  00000+0 -25173-4 0  9996,2 56801  70.0008 294.5680 0002609 274.9204  85.1657 14.98325011 90786,70.0008,0.0002609,96.10731913491364,570.3950097077395,574.0216284086237,2025-01-17 03:43:15.3696,294.568,274.92040000000003,14.98325011,14.98325011,6950.208319058182,7.573035225139197,LEO,2,-2.5173e-05,9078,56801,0,23078AL
6654,active,STARLINK-6029,1 56803U 23078AN  25017.52662778 -.00000015  00000+0  65245-5 0  9993,2 56803  70.0012 313.7242 0002562 272.1132  87.9733 14.98328914 90341,70.0012,0.0002562,96.10706878476485,570.415609032786,573.9768895909328,2025-01-17 12:38:20.640192,313.7242,272.1132,14.98328914,14.98328914,6950.19624931186,7.573041800822177,LEO,2,6.5245e-06,9034,56803,0,23078AN
6656,active,STARLINK-6064,1 56805U 23078AQ  25017.16355297 -.00000473  00000+0 -31886-4 0  9992,2 56805  70.0005 294.5949 0002430 271.1645  88.9236 14.98324350 90784,70.0005,0.000243,96.10736153356915,570.5214620400029,573.8992642764979,2025-01-17 03:55:30.976608,294.5949,271.1645,14.9832435,14.9832435,6950.21036315825,7.57303411150075,LEO,2,-3.1886e-05,9078,56805,0,23078AQ
6658,active,STARLINK-6073,1 56807U 23078AS  25017.14668734 -.00000009  00000+0  70620-5 0  9999,2 56807  70.0005 294.5390 0002641 264.3395  95.7463 14.98328508 90783,70.0005,0.0002641,96.10709482676413,570.361957674143,574.0330519961972,2025-01-17 03:31:13.786176,294.539,264.3395,14.98328508,14.98328508,6950.19750483517,7.573041116803418,LEO,2,7.062000000000001e-06,9078,56807,0,23078AS
6659,active,STARLINK-6042,1 56808U 23078AT  25017.57286607 -.00000499  00000+0 -33080-4 0  9994,2 56808  69.9979 243.8334 0002752 276.8150  83.2697 14.99313016 92081,69.9979,0.0002752,96.04398712163251,567.2427991219993,571.0665130447078,2025-01-17 13:44:55.628448,243.8334,276.815,14.99313016,14.99313016,6947.154656083354,7.574699428524597,LEO,2,-3.308e-05,9208,56808,0,23078AT
6631,active,STARLINK-5963,1 56780U 23078P   25017.56015421  .00003269  00000+0  28156-3 0  9999,2 56780  70.0020 313.4629 0002499 288.8064  71.2823 14.98342688 90358,70.002,0.0002499,96.10618528943627,570.416811229642,573.8904980262259,2025-01-17 13:26:37.323744,313.4629,288.8064,14.98342688,14.98342688,6950.153654627934,7.573065006843487,LEO,2,0.00028156,9035,56780,0,23078P
8889,active,STARLINK-31689,1 59567U 24076D   25016.55336433  .00000521  00000+0  19733-4 0  9991,2 59567  42.9994 212.8560 0001966 269.4541  90.6090 15.40702503 42612,42.9994,0.0001966,93.46385802554902,442.83051977943705,445.51299771497634,2025-01-16 13:16:50.678112,212.856,269.4541,15.40702503,15.40702503,6822.171758747207,7.643769164386259,LEO,3,1.9733000000000002e-05,4261,59567,0,24076D
